      2.10          N: GNSS NAV DATA                        RINEX VERSION / TYPE
fic2rin                                 02/09/2019 00:18:35 PGM / RUN BY / DATE
                                                            END OF HEADER
10 19  2  8  4  0  0.0 1.210286282003e-04-7.275957614183e-12 0.000000000000e+00
    2.900000000000e+01-9.496875000000e+01 4.351966991179e-09-5.220941243673e-01
   -5.083158612251e-06 4.316851380281e-03 9.037554264069e-06 5.153667699814e+03
    4.464000000000e+05 1.564621925354e-07 6.278457746966e-02 4.097819328308e-08
    9.628323226995e-01 2.069062500000e+02-2.760999886088e+00-8.049621013311e-09
   -4.053740283126e-10 1.000000000000e+00 2.039000000000e+03 0.000000000000e+00
    2.400000000000e+00 0.000000000000e+00 1.862645149231e-09 2.900000000000e+01
    4.392000000000e+05 4.000000000000e+00
12 19  2  8  4  0  0.0 2.697799354792e-04-3.183231456205e-12 0.000000000000e+00
    3.600000000000e+01-7.937500000000e+00 3.966593795982e-09 1.818703764540e-01
   -5.587935447693e-07 7.404350442812e-03 1.076236367226e-05 5.153704338074e+03
    4.464000000000e+05-2.235174179077e-08-3.010173122479e+00 8.940696716309e-08
    9.843629892296e-01 1.887500000000e+02 1.028776719834e+00-7.791395971488e-09
   -3.853731951976e-10 1.000000000000e+00 2.039000000000e+03 0.000000000000e+00
    2.400000000000e+00 0.000000000000e+00-1.257285475731e-08 3.600000000000e+01
    4.392000000000e+05 4.000000000000e+00
 7 19  2  8  4  0  0.0 3.668107092381e-05-7.162270776462e-12 0.000000000000e+00
    9.000000000000e+01 4.031250000000e+00 5.031638159354e-09 8.816657114301e-01
    2.849847078323e-07 1.220000244211e-02 4.593282938004e-06 5.153605690002e+03
    4.464000000000e+05-1.154839992523e-07 2.175354135340e+00 1.434236764908e-07
    9.559897881719e-01 2.895625000000e+02-2.478513980353e+00-8.522497853387e-09
   -1.285767843106e-10 1.000000000000e+00 2.039000000000e+03 0.000000000000e+00
    2.400000000000e+00 0.000000000000e+00-1.117587089539e-08 9.000000000000e+01
    4.392000000000e+05 4.000000000000e+00
 9 19  2  8  4  0  0.0 4.615164361894e-04-5.115907697473e-12 0.000000000000e+00
    9.800000000000e+01 3.168750000000e+01 4.578762152394e-09-2.237946118182e+00
    1.626089215279e-06 1.467105699703e-03 9.898096323013e-06 5.153742830276e+03
    4.464000000000e+05 3.352761268616e-08 1.098350722053e+00-5.587935447693e-09
    9.524277318666e-01 1.856562500000e+02 1.716106938011e+00-8.021405552310e-09
    3.646580466142e-10 1.000000000000e+00 2.039000000000e+03 0.000000000000e+00
    3.400000000000e+00 0.000000000000e+00 1.396983861923e-09 9.800000000000e+01
    4.392000000000e+05 4.000000000000e+00
32 19  2  8  4  0  0.0-2.374267205596e-04 1.830358087318e-11 0.000000000000e+00
    3.100000000000e+01 2.403125000000e+01 4.380539609915e-09-1.843353880048e+00
    1.311302185059e-06 2.556836698204e-03 1.046434044838e-05 5.153755210876e+03
    4.464000000000e+05-2.607703208923e-08 1.104545328701e+00-9.313225746155e-08
    9.567173412203e-01 1.773437500000e+02-2.623688351471e+00-7.859255940985e-09
    4.446613790741e-10 1.000000000000e+00 2.039000000000e+03 0.000000000000e+00
    2.400000000000e+00 0.000000000000e+00 4.656612873077e-10 3.100000000000e+01
    4.392000000000e+05 4.000000000000e+00
16 19  2  8  4  0  0.0-1.779664307833e-05-2.501110429876e-12 0.000000000000e+00
    6.900000000000e+01-1.925000000000e+01 3.880875939775e-09-1.717068136631e+00
   -1.257285475731e-06 1.055975013878e-02 1.016259193420e-05 5.153772632599e+03
    4.464000000000e+05 7.450580596924e-08-2.991273811087e+00-1.583248376846e-07
    9.847409984838e-01 1.912500000000e+02 5.351734326930e-01-7.590316167135e-09
   -2.100087477073e-10 1.000000000000e+00 2.039000000000e+03 0.000000000000e+00
    2.400000000000e+00 0.000000000000e+00-1.071020960808e-08 6.900000000000e+01
    4.392000000000e+05 4.000000000000e+00
30 19  2  8  4  0  0.0-4.904298111796e-05-6.366462912410e-12 0.000000000000e+00
    7.200000000000e+01-2.031250000000e+00 5.312006980698e-09 8.945763204316e-01
   -6.146728992462e-08 3.644024487585e-03 4.148110747337e-06 5.153622995377e+03
    4.464000000000e+05 2.421438694000e-08 2.205161396955e+00 7.823109626770e-08
    9.415057902953e-01 2.889375000000e+02-3.022611526394e+00-8.566071096959e-09
   -5.821671067396e-11 1.000000000000e+00 2.039000000000e+03 0.000000000000e+00
    2.400000000000e+00 0.000000000000e+00 3.725290298462e-09 7.200000000000e+01
    4.392000000000e+05 4.000000000000e+00
25 19  2  8  4  0  0.0-7.173246704042e-04-5.343281372916e-12 0.000000000000e+00
    3.900000000000e+01-2.018750000000e+01 4.323751530178e-09-1.272605223059e-01
   -1.035630702972e-06 8.155100978911e-03 1.008063554764e-05 5.153757349014e+03
    4.464000000000e+05 5.960464477539e-08-3.073096030556e+00 8.754432201385e-08
    9.718293683655e-01 1.951562500000e+02 8.526732059473e-01-7.999976088258e-09
   -3.935878230841e-10 1.000000000000e+00 2.039000000000e+03 0.000000000000e+00
    2.400000000000e+00 0.000000000000e+00 5.587935447693e-09 3.900000000000e+01
    4.392000000000e+05 4.000000000000e+00
17 19  2  8  4  0  0.0 6.662216037512e-06 5.456968210638e-12 0.000000000000e+00
    3.600000000000e+01 9.521875000000e+01 4.018024509706e-09-2.643051448856e+00
    4.984438419342e-06 1.298461388797e-02 7.953494787216e-06 5.153692335129e+03
    4.464000000000e+05 1.862645149231e-07-1.977061144395e+00 7.450580596924e-08
    9.837283080726e-01 2.367500000000e+02-1.724323477383e+00-7.638889618986e-09
    3.653723620826e-10 1.000000000000e+00 2.039000000000e+03 0.000000000000e+00
    2.400000000000e+00 0.000000000000e+00-1.117587089539e-08 3.600000000000e+01
    4.392000000000e+05 4.000000000000e+00
31 19  2  8  4  0  0.0 6.017740815878e-05-2.614797267597e-12 0.000000000000e+00
    4.600000000000e+01 3.156250000000e+00 4.887346434739e-09 4.787812966714e-01
    2.738088369370e-07 9.257185272872e-03 4.567205905914e-06 5.153551073074e+03
    4.464000000000e+05 1.676380634308e-07 2.188964007480e+00 3.725290298462e-08
    9.605778532947e-01 2.889687500000e+02-1.870970404284e-02-8.394278226811e-09
    4.500187450871e-11 1.000000000000e+00 2.039000000000e+03 0.000000000000e+00
    2.400000000000e+00 0.000000000000e+00-1.350417733192e-08 4.600000000000e+01
    4.392000000000e+05 4.000000000000e+00
26 19  2  8  4  0  0.0 1.185010187328e-04 1.045918907039e-11 0.000000000000e+00
    4.100000000000e+01-3.162500000000e+01 4.655193907512e-09-8.296802752623e-01
   -1.678243279457e-06 3.636624664068e-03 9.408220648766e-06 5.153795349121e+03
    4.464000000000e+05 7.078051567078e-08-3.099653431361e+00-7.264316082001e-08
    9.531768059028e-01 1.903437500000e+02 1.172239182753e-01-8.105337619846e-09
   -3.718012012981e-10 1.000000000000e+00 2.039000000000e+03 0.000000000000e+00
    2.400000000000e+00 0.000000000000e+00 7.450580596924e-09 4.100000000000e+01
    4.392000000000e+05 4.000000000000e+00
22 19  2  8  4  0  0.0-6.405380554497e-04-8.185452315956e-12 0.000000000000e+00
    1.100000000000e+02-9.956250000000e+01 5.150571684842e-09 2.912378804382e+00
   -5.196779966354e-06 7.151547353715e-03 7.985159754753e-06 5.153590129852e+03
    4.464000000000e+05 9.872019290924e-08-2.955521692199e-03-5.587935447693e-09
    9.271327167191e-01 2.048125000000e+02-1.424462208351e+00-8.278201963197e-09
   -3.196561721055e-10 1.000000000000e+00 2.039000000000e+03 0.000000000000e+00
    3.400000000000e+00 0.000000000000e+00-1.816079020500e-08 1.100000000000e+02
    4.392000000000e+05 4.000000000000e+00
24 19  2  8  4  0  0.0-6.185751408339e-05-4.547473508865e-13 0.000000000000e+00
    9.500000000000e+01 9.531250000000e+00 5.433083452591e-09 1.809327874294e+00
    4.433095455170e-07 8.157449308783e-03 4.408881068230e-06 5.153722459793e+03
    4.464000000000e+05-1.490116119385e-07 2.111223998005e+00 4.284083843231e-08
    9.390877578717e-01 2.825625000000e+02 5.924234150989e-01-8.640717063406e-09
    2.392956819114e-11 1.000000000000e+00 2.039000000000e+03 0.000000000000e+00
    3.400000000000e+00 0.000000000000e+00 2.793967723846e-09 9.500000000000e+01
    4.392000000000e+05 4.000000000000e+00
15 19  2  8  4  0  0.0-3.288215957582e-04 1.705302565824e-12 0.000000000000e+00
    8.900000000000e+01 2.803125000000e+01 5.026995108810e-09 2.791806158367e+00
    1.372769474983e-06 1.120287517551e-02 1.084432005882e-05 5.153638645172e+03
    4.464000000000e+05 1.676380634308e-08 1.021074864301e+00-1.061707735062e-07
    9.280099643228e-01 1.519375000000e+02 7.619208678510e-01-8.098551622896e-09
    4.257320191617e-10 1.000000000000e+00 2.039000000000e+03 0.000000000000e+00
    2.400000000000e+00 0.000000000000e+00-1.071020960808e-08 8.900000000000e+01
    4.392000000000e+05 4.000000000000e+00
21 19  2  8  4  0  0.0-2.542827278376e-04 7.162270776462e-12 0.000000000000e+00
    8.100000000000e+01 1.875000000000e+00 5.404510833855e-09-2.348204432483e-01
    2.216547727585e-07 2.474443556275e-02 3.026798367500e-06 5.153791368484e+03
    4.464000000000e+05-3.818422555923e-07-1.037738987549e+00 9.313225746155e-09
    9.469081551197e-01 3.173750000000e+02-1.480181324522e+00-9.172167771890e-09
    9.143237995420e-11 1.000000000000e+00 2.039000000000e+03 0.000000000000e+00
    2.400000000000e+00 0.000000000000e+00-1.024454832077e-08 8.100000000000e+01
    4.392000000000e+05 4.000000000000e+00
19 19  2  8  4  0  0.0-3.548357635736e-04 4.092726157978e-12 0.000000000000e+00
    7.000000000000e+01 8.753125000000e+01 4.155887395106e-09 1.538684449869e-01
    4.671514034271e-06 9.383418248035e-03 7.826834917068e-06 5.153621099472e+03
    4.464000000000e+05-1.452863216400e-07-1.930584640782e+00 5.960464477539e-08
    9.814373842122e-01 2.423125000000e+02 1.342227707846e+00-8.056049852527e-09
    2.792973481413e-10 1.000000000000e+00 2.039000000000e+03 0.000000000000e+00
    2.400000000000e+00 0.000000000000e+00-1.536682248116e-08 7.000000000000e+01
    4.392000000000e+05 4.000000000000e+00
